#dP2022  5 18  0  0  0.00000000      96 __u+U ITR00 FIT  IAC
## 2210 259200.00000000   900.00000000 59717 0.0000000000000
+  116   C06C07C08C09C10C11C12C13C14C16C19C20C21C22C23C24C25
+        C26C27C28C29C30C32C33C34C35C36C37C38C39C40C41C42C43
+        C44C45C46E02E03E04E05E07E08E09E10E11E12E13E14E15E18
+        E19E21E24E25E26E27E30E31E33E34E36G01G02G03G04G05G06
+        G07G08G09G10G11G12G13G14G15G16G17G18G19G20G21G22G23
+        G24G25G26G27G28G29G30G31G32J02J03R01R02R03R04R05R07
+        R08R09R11R12R13R14R15R17R18R19R20R21R22R24  0  0  0
++         8  7  9  8  9  8  7  7  7  7  7  7  6  7  8  7  8
++         7  7  8  7  7  7  7  6  8  9  6  8  9  9  5  7  8
++         6  5  7  7  6  7  4  6  6  6  8  5  7  5  5  7  5
++         5  6  5  7  6  6  7  6  6  6  5  7  7  5  7  6  5
++         7  6  7  6  7  7  7  6  7  7  7  7  7  5  6  6  7
++         7  6  7  7  6  5  7  6  6  9  9  8  7  7  6  7  6
++         7  7  8  7  7  6  6  6  5  7  7  7  7  5  0  0  0
%c M  cc GPS ccc cccc cccc cccc cccc ccccc ccccc ccccc ccccc
%c cc cc ccc ccc cccc cccc cccc cccc ccccc ccccc ccccc ccccc
%f  0.0000000  0.000000000  0.00000000000  0.000000000000000
%f  0.0000000  0.000000000  0.00000000000  0.000000000000000
%i    0    0    0    0      0      0      0      0         0
%i    0    0    0    0      0      0      0      0         0
/* INFORMATION & ANALYSIS CENTER (IAC)      ULTRA-RAPID DATA
/* S/V CLOCKS ARE ALIGNED TO GNSS TIME                      
/* G:C1WC2W R:C1PC2P E:C1XC5X C:C2IC6I J:C1CC2S             
/* PCV:IGS14_2196 OL/AL:FES2004  NONE     YN ORB:CoN CLK:CoN
*  2022 05 18 16 15  0.00000000
PC06   -625.443963  33225.185033  26100.754474      9.929867
PC07 -15064.660776  26954.490704 -28775.660018   -182.873701
PC08 -15129.642137  39040.787585   4323.161735    319.281536
PC09   5454.193720  37073.062610  20173.864279   -799.358380
PC10  -6268.756628  27437.833758 -31239.154740    131.618478
PC11  -1977.691623 -22074.578325  17030.881834    360.016701
PC12  12682.187316  -8695.197695  23314.862045   -614.151231
PC13  -9071.690311  39423.812551  11502.068709    -29.188950
PC14   6294.783824 -16059.124824 -21898.111991    477.859266
PC16  -3019.868558  31174.872377  28526.322454    132.513660
PC19   5036.987191  15196.703249  22886.203138    868.723070
PC20 -14965.434314  14691.010428  18448.180410   -920.192729
PC21  27271.764135  -5238.618096  -2571.162206   -314.303305
PC22  22952.266669   6963.644491  14243.319982   -969.437632
PC23 -12716.857124 -10986.260066  22284.192505   -930.238555
PC24  13894.473032 -23726.902857  -4843.388055   -966.085100
PC25   -475.148058 -24551.168703  13269.993572   -734.824447
PC26  18287.160703 -10494.992731 -18307.530529    736.076769
PC27 -18189.352400      9.001447 -21183.124722    725.169844
PC28 -20236.183263 -16958.918276  -9041.269349     68.230804
PC29  11086.938054  23974.312425  -9022.651844    556.375316
PC30  -5625.027308  16905.673291 -21494.912272    498.677780
PC32 -27254.768967   5464.822058   2581.541773   -963.594526
PC33  -5086.593183 -15185.544098 -22843.907077   -965.981015
PC34   4812.232669 -17606.123422  21086.341879   -400.721389
PC35  20633.324721  16991.621311   8069.881291    279.830132
PC36   -509.709937  24757.742936 -12839.680728   -964.487406
PC37 -18485.497267   8808.254420  18966.655380   -910.901354
PC38 -18630.031976  37587.069010  -3401.509593    233.039642
PC39  -6894.235345  27080.134666  31657.374589     34.986061
PC40 -21559.117747  20521.765919 -29957.131009    270.106892
PC41 -22708.868219  -7131.828980 -14515.062506   -966.133336
PC42  15932.389116 -14424.034590 -17738.501663   -971.384742
PC43 -10433.317608 -24021.895064   9586.959951   -923.369056
PC44  18389.547184   -460.585594  20978.428682    663.699971
PC45  12779.483312  10619.359128 -22414.438202    760.322738
PC46 -13049.369452  24409.798411   3407.301410   -331.331605
PE02  20214.215207   2900.584346 -21436.164355    299.976209
PE03  27430.113820  11102.290418   -258.167422   -559.566063
PE04 -23969.350449   3176.109335  17089.341187  -1030.678188
PE05  14820.997639  19130.059118  17052.730463   -180.453135
PE07   6194.382325 -15907.608894 -24169.300083   -669.752412
PE08  23750.801401  -3357.925228 -17327.038621   -531.265427
PE09  -5997.067645  15841.965981  24283.409853   -522.637666
PE10 -10298.710701  19249.818671 -20001.627708   -513.831068
PE11  -4334.500593  26634.190745 -12203.413744   3631.718879
PE12 -14525.068218   9235.796291 -24091.546815   4607.491847
PE13   4663.974263 -26262.555452  12819.444324    428.756558
PE14 -17395.445969  12532.133059 -24000.935433  -1833.922841
PE15  14477.962209  -9058.411802  24174.365841    744.893438
PE18   5032.835352 -15024.609071  18429.925388  -1434.103099
PE19 -26690.329098 -12625.528686  -2079.391574  -4877.965829
PE21  -4286.714940 -17090.325302  23783.334601   -734.922696
PE24 -15980.146480  22065.547539 -11559.870174   -621.866356
PE25   4015.916035  17241.620073 -23717.854043   -574.388693
PE26  -8318.008869 -27562.903353  -6871.621608  -1159.275564
PE27  14972.487827 -22240.401044  12555.356352   -301.669756
PE30  25462.288324 -13455.664773  -6880.974013   -520.604888
PE31 -25249.079570  14248.555751   5970.927321   -496.828047
PE33 -15704.586109 -13380.755936 -21221.609026   -456.514439
PE34  15760.615454  13161.869890  21308.105589   -517.687194
PE36   7810.098679  27927.151880   5969.456821   -375.445223
PG01  13057.371434 -11175.880425  19842.773343    360.237809
PG02 -13878.854281 -12248.484502 -18339.571012   -653.221613
PG03  23147.169164 -12815.414640   1316.543734   -248.710767
PG04  18891.580132  -3589.727632 -18347.114316   -166.047575
PG05 -21968.321471   1812.323290 -15090.977839    -82.305023
PG06  -5979.407633 -24317.731018  -8669.350343    308.263058
PG07   5852.617566 -24037.111687  -8552.862608    322.144390
PG08  23771.195395   3369.947199  11700.158454    -68.524918
PG09   9345.985544 -12394.874551 -21616.415683   -335.763176
PG10  -1629.462310  17107.145910  20316.467484   -419.368573
PG11 -12790.042643 -13279.089793 -19127.746408    -23.443946
PG12 -24508.057110   8660.724543   4870.900722   -217.407145
PG13 -22815.831989 -12768.038952   5022.990977    313.850882
PG14   3517.647893 -17695.911734  19459.764708   -108.825018
PG15 -23865.426367   -238.861463  11562.703106    -60.261195
PG16  19506.716603   4294.397423 -18003.394491   -501.941431
PG17  -7429.011433 -18823.929535  17604.750287    614.163132
PG18  -6660.194488  23790.532450  -9607.494208    166.732336
PG19 -14539.171582 -19317.826804  10971.775996    158.977230
PG20 -15193.531300  -6808.963630 -20643.331169    514.716131
PG21  15607.946249    353.870855  22157.420155    161.129239
PG22  16402.168626  18954.477748   9466.159790    261.182708
PG23 -12545.423738  19030.200722  13540.040664    -22.688434
PG24 -14660.918486   7008.593501  20647.285099    238.777792
PG25 -18129.604156  17608.725257  -7984.451892    326.298796
PG26  10616.751213  11777.592077 -21411.483080    206.475709
PG27  23482.237630  12862.834609    214.217003    204.793569
PG28  -5407.553017 -14338.953126  22214.166717    355.673759
PG29 -10289.556639  10865.307999 -22001.172767   -514.964218
PG30   -216.600378 -26420.014416    340.325461   -528.360243
PG31   7670.996394  22684.245395 -11100.735836   -178.139722
PG32  10832.683897  18602.894786  15825.197134   -130.016794
PJ02 -35039.663129  23304.479130   1200.939984     -0.173146
PJ03 -19789.494644  23337.737604 -24422.950754     -2.238147
PR01 -22834.272210   4261.716818  10567.311928      8.856132
PR02  -6063.253728  10259.795858  22593.385152    518.765084
PR03  13000.764794  10074.181877  19566.843952     56.869587
PR04  24482.759936   4284.255013   5786.348298    142.135001
PR05  22602.804112  -3747.274720 -11218.198602     93.096169
PR07 -13653.041311  -9893.897901 -19078.876008     35.252715
PR08 -24545.321487  -4098.045213  -5487.571885    -65.185527
PR09  10243.666629 -22373.649736   6588.294356     55.723532
PR11 -12168.989976   -623.575402  22421.952164     38.697617
PR12 -16633.435576  15814.865075  11138.711934     18.519411
PR13 -11145.154761  22317.477220  -5345.932702    -22.460279
PR14   1519.277038  15594.986988 -20122.788712     25.662108
PR15  12664.889002     -2.852019 -22121.902216     96.044037
PR17  11411.754731  22791.290780    299.054554    527.163176
PR18  14557.212234  13634.483562  15943.918761    117.287223
PR19  10656.775424  -1338.412186  23129.730074   -189.446141
PR20   -580.825816 -19286.345272  16659.472905    -70.798366
PR21 -11892.240290 -22505.839812  -1837.054869   -302.252703
PR22 -14367.803789 -12892.441520 -16636.080581   -183.938278
PR24   1225.212907  19830.302548 -15981.760692     94.361898
EOF
